[{"OBJECT_NAME":"STARLINK-32532","OBJECT_ID":"2024-224T","EPOCH":"2026-03-09T23:08:33.570816","MEAN_MOTION":15.27591209,"ECCENTRICITY":5.561e-5,"INCLINATION":42.9995,"RA_OF_ASC_NODE":156.4155,"ARG_OF_PERICENTER":33.602,"MEAN_ANOMALY":326.4867,"EPHEMERIS_TYPE":0,"CLASSIFICATION_TYPE":"U","NORAD_CAT_ID":62156,"ELEMENT_SET_NO":999,"REV_AT_EPOCH":7236,"BSTAR":0.00084088698,"MEAN_MOTION_DOT":0.00022957,"MEAN_MOTION_DDOT":0},{"OBJECT_NAME":"COSMOS 2251 DEB","OBJECT_ID":"1993-036RB","EPOCH":"2026-03-09T01:08:04.800192","MEAN_MOTION":15.30699894,"ECCENTRICITY":0.00252965,"INCLINATION":73.7308,"RA_OF_ASC_NODE":76.2904,"ARG_OF_PERICENTER":263.9966,"MEAN_ANOMALY":95.8352,"EPHEMERIS_TYPE":0,"CLASSIFICATION_TYPE":"U","NORAD_CAT_ID":34410,"ELEMENT_SET_NO":999,"REV_AT_EPOCH":91089,"BSTAR":0.003018315,"MEAN_MOTION_DOT":0.00091531,"MEAN_MOTION_DDOT":0}]
